STARLINK-1535
1 26050C 20055Z   21325.15354072  .00328880  00000-0  39940-2 0  3256
2 26050  53.0546 305.0032 0001326  56.5526  47.1687 15.59625456    16
